{"type": "FeatureCollection", "features": [ {"type": "Feature", "properties": {"norad_id": 31916, "name": "FENGYUN 1C DEB", "group": "fengyun-1c-debris", "lat": -76.21675708708851, "lon": 103.33714450943187, "alt_km": 886.8479980464544, "timestamp": "2025-12-02T19:35:50.840896+00:00", "meta": {"OBJECT_NAME": "FENGYUN 1C DEB", "OBJECT_ID": "1999-025CLT", "EPOCH": "2025-12-01T23:51:40.284864", "MEAN_MOTION": 14.32345877, "ECCENTRICITY": 0.01477101, "INCLINATION": 99.3311, "RA_OF_ASC_NODE": 60.3668, "ARG_OF_PERICENTER": 127.4687, "MEAN_ANOMALY": 234.0034, "EPHEMERIS_TYPE": 0, "CLASSIFICATION_TYPE": "U", "NORAD_CAT_ID": 31916, "ELEMENT_SET_NO": 999, "REV_AT_EPOCH": 64373, "BSTAR": 0.0018810699, "MEAN_MOTION_DOT": 5.687e-05, "MEAN_MOTION_DDOT": 0}, "tle": {"line1": "1 31916U 99025CLT 25335.99421626  .00005687  00000+0  18811-2 0  9998", "line2": "2 31916  99.3311  60.3668 0147710 127.4687 234.0034 14.32345877643735"}}, "geometry": {"type": "Point", "coordinates": [103.33714450943187, -76.21675708708851]}}, {"type": "Feature", "properties": {"norad_id": 31917, "name": "FENGYUN 1C DEB", "group": "fengyun-1c-debris", "lat": 35.199920052567556, "lon": -36.09158805134874, "alt_km": 721.0412572738878, "timestamp": "2025-12-02T19:35:50.840906+00:00", "meta": {"OBJECT_NAME": "FENGYUN 1C DEB", "OBJECT_ID": "1999-025CLU", "EPOCH": "2025-12-02T06:07:47.080128", "MEAN_MOTION": 14.37534307, "ECCENTRICITY": 0.01898264, "INCLINATION": 98.3598, "RA_OF_ASC_NODE": 329.3164, "ARG_OF_PERICENTER": 324.9516, "MEAN_ANOMALY": 46.343, "EPHEMERIS_TYPE": 0, "CLASSIFICATION_TYPE": "U", "NORAD_CAT_ID": 31917, "ELEMENT_SET_NO": 999, "REV_AT_EPOCH": 96271, "BSTAR": 0.00097434798, "MEAN_MOTION_DOT": 3.546e-05, "MEAN_MOTION_DDOT": 0}, "tle": {"line1": "1 31917U 99025CLU 25336.25540602  .00003546  00000+0  97435-3 0  9997", "line2": "2 31917  98.3598 329.3164 0189826 324.9516  46.3430 14.37534307962719"}}, "geometry": {"type": "Point", "coordinates": [-36.09158805134874, 35.199920052567556]}}, {"type": "Feature", "properties": {"norad_id": 31919, "name": "FENGYUN 1C DEB", "group": "fengyun-1c-debris", "lat": -65.86517025561061, "lon": 139.47087045747824, "alt_km": 706.2130177257695, "timestamp": "2025-12-02T19:35:50.840917+00:00", "meta": {"OBJECT_NAME": "FENGYUN 1C DEB", "OBJECT_ID": "1999-025CLW", "EPOCH": "2025-12-02T04:07:57.469152", "MEAN_MOTION": 14.45682591, "ECCENTRICITY": 0.01019268, "INCLINATION": 99.1012, "RA_OF_ASC_NODE": 117.8167, "ARG_OF_PERICENTER": 238.0957, "MEAN_ANOMALY": 301.7581, "EPHEMERIS_TYPE": 0, "CLASSIFICATION_TYPE": "U", "NORAD_CAT_ID": 31919, "ELEMENT_SET_NO": 999, "REV_AT_EPOCH": 96928, "BSTAR": 0.0006093008, "MEAN_MOTION_DOT": 2.244e-05, "MEAN_MOTION_DDOT": 0}, "tle": {"line1": "1 31919U 99025CLW 25336.17219293  .00002244  00000+0  60930-3 0  9993", "line2": "2 31919  99.1012 117.8167 0101926 238.0957 301.7581 14.45682591969285"}}, "geometry": {"type": "Point", "coordinates": [139.47087045747824, -65.86517025561061]}}, {"type": "Feature", "properties": {"norad_id": 31921, "name": "FENGYUN 1C DEB", "group": "fengyun-1c-debris", "lat": -33.630668238567736, "lon": -124.3259909771023, "alt_km": 863.0283554966709, "timestamp": "2025-12-02T19:35:50.840927+00:00", "meta": {"OBJECT_NAME": "FENGYUN 1C DEB", "OBJECT_ID": "1999-025CLY", "EPOCH": "2025-11-28T10:59:40.701408", "MEAN_MOTION": 13.75221873, "ECCENTRICITY": 0.02030283, "INCLINATION": 99.3395, "RA_OF_ASC_NODE": 225.1205, "ARG_OF_PERICENTER": 302.7278, "MEAN_ANOMALY": 55.4443, "EPHEMERIS_TYPE": 0, "CLASSIFICATION_TYPE": "U", "NORAD_CAT_ID": 31921, "ELEMENT_SET_NO": 999, "REV_AT_EPOCH": 92110, "BSTAR": 0.0013372517, "MEAN_MOTION_DOT": 1.443e-05, "MEAN_MOTION_DDOT": 0}, "tle": {"line1": "1 31921U 99025CLY 25332.45810997  .00001443  00000+0  13373-2 0  9999", "line2": "2 31921  99.3395 225.1205 0203028 302.7278  55.4443 13.75221873921104"}}, "geometry": {"type": "Point", "coordinates": [-124.3259909771023, -33.630668238567736]}}, {"type": "Feature", "properties": {"norad_id": 31922, "name": "FENGYUN 1C DEB", "group": "fengyun-1c-debris", "lat": 22.92629035862561, "lon": 152.58232760069376, "alt_km": 965.7529623931996, "timestamp": "2025-12-02T19:35:50.840937+00:00", "meta": {"OBJECT_NAME": "FENGYUN 1C DEB", "OBJECT_ID": "1999-025CLZ", "EPOCH": "2025-11-29T21:52:29.970336", "MEAN_MOTION": 13.86531507, "ECCENTRICITY": 0.01614099, "INCLINATION": 98.8047, "RA_OF_ASC_NODE": 326.0889, "ARG_OF_PERICENTER": 61.218, "MEAN_ANOMALY": 0.6426, "EPHEMERIS_TYPE": 0, "CLASSIFICATION_TYPE": "U", "NORAD_CAT_ID": 31922, "ELEMENT_SET_NO": 999, "REV_AT_EPOCH": 92839, "BSTAR": 0.0014099628, "MEAN_MOTION_DOT": 1.774e-05, "MEAN_MOTION_DDOT": 0}, "tle": {"line1": "1 31922U 99025CLZ 25333.91145799  .00001774  00000+0  14100-2 0  9999", "line2": "2 31922  98.8047 326.0889 0161409  61.2180   0.6426 13.86531507928398"}}, "geometry": {"type": "Point", "coordinates": [152.58232760069376, 22.92629035862561]}}, {"type": "Feature", "properties": {"norad_id": 31923, "name": "FENGYUN 1C DEB", "group": "fengyun-1c-debris", "lat": 36.81802380373748, "lon": 65.60254189070189, "alt_km": 960.6745624469095, "timestamp": "2025-12-02T19:35:50.840948+00:00", "meta": {"OBJECT_NAME": "FENGYUN 1C DEB", "OBJECT_ID": "1999-025CMA", "EPOCH": "2025-11-27T04:43:30.487296", "MEAN_MOTION": 13.54838652, "ECCENTRICITY": 0.0299441, "INCLINATION": 98.4405, "RA_OF_ASC_NODE": 67.1712, "ARG_OF_PERICENTER": 344.5928, "MEAN_ANOMALY": 14.6245, "EPHEMERIS_TYPE": 0, "CLASSIFICATION_TYPE": "U", "NORAD_CAT_ID": 31923, "ELEMENT_SET_NO": 999, "REV_AT_EPOCH": 63424, "BSTAR": 0.0012454, "MEAN_MOTION_DOT": 1.103e-05, "MEAN_MOTION_DDOT": 0}, "tle": {"line1": "1 31923U 99025CMA 25331.19688064  .00001103  00000+0  12454-2 0  9991", "line2": "2 31923  98.4405  67.1712 0299441 344.5928  14.6245 13.54838652634244"}}, "geometry": {"type": "Point", "coordinates": [65.60254189070189, 36.81802380373748]}}, {"type": "Feature", "properties": {"norad_id": 31924, "name": "FENGYUN 1C DEB", "group": "fengyun-1c-debris", "lat": -21.280639068881584, "lon": 138.7977211470881, "alt_km": 1190.194387171513, "timestamp": "2025-12-02T19:35:50.840958+00:00", "meta": {"OBJECT_NAME": "FENGYUN 1C DEB", "OBJECT_ID": "1999-025CMB", "EPOCH": "2025-12-02T09:08:33.334368", "MEAN_MOTION": 13.63861956, "ECCENTRICITY": 0.0273697, "INCLINATION": 98.403, "RA_OF_ASC_NODE": 135.1202, "ARG_OF_PERICENTER": 124.3945, "MEAN_ANOMALY": 238.3408, "EPHEMERIS_TYPE": 0, "CLASSIFICATION_TYPE": "U", "NORAD_CAT_ID": 31924, "ELEMENT_SET_NO": 999, "REV_AT_EPOCH": 91326, "BSTAR": 0.0017917, "MEAN_MOTION_DOT": 1.8e-05, "MEAN_MOTION_DDOT": 0}, "tle": {"line1": "1 31924U 99025CMB 25336.38094137  .00001800  00000+0  17917-2 0  9993", "line2": "2 31924  98.4030 135.1202 0273697 124.3945 238.3408 13.63861956913268"}}, "geometry": {"type": "Point", "coordinates": [138.7977211470881, -21.280639068881584]}}, {"type": "Feature", "properties": {"norad_id": 31926, "name": "FENGYUN 1C DEB", "group": "fengyun-1c-debris", "lat": -8.677980463352123, "lon": -109.6241301494525, "alt_km": 795.275233872866, "timestamp": "2025-12-02T19:35:50.840968+00:00", "meta": {"OBJECT_NAME": "FENGYUN 1C DEB", "OBJECT_ID": "1999-025CMD", "EPOCH": "2025-12-02T05:17:05.814816", "MEAN_MOTION": 14.30511949, "ECCENTRICITY": 0.0037969, "INCLINATION": 98.9584, "RA_OF_ASC_NODE": 71.1415, "ARG_OF_PERICENTER": 283.3692, "MEAN_ANOMALY": 76.3258, "EPHEMERIS_TYPE": 0, "CLASSIFICATION_TYPE": "U", "NORAD_CAT_ID": 31926, "ELEMENT_SET_NO": 999, "REV_AT_EPOCH": 95077, "BSTAR": 0.002944, "MEAN_MOTION_DOT": 7.692e-05, "MEAN_MOTION_DDOT": 0}, "tle": {"line1": "1 31926U 99025CMD 25336.22020619  .00007692  00000+0  29440-2 0  9991", "line2": "2 31926  98.9584  71.1415 0037969 283.3692  76.3258 14.30511949950778"}}, "geometry": {"type": "Point", "coordinates": [-109.6241301494525, -8.677980463352123]}}, {"type": "Feature", "properties": {"norad_id": 31929, "name": "FENGYUN 1C DEB", "group": "fengyun-1c-debris", "lat": 45.89050164498178, "lon": -64.82874030048056, "alt_km": 736.2352668129597, "timestamp": "2025-12-02T19:35:50.840979+00:00", "meta": {"OBJECT_NAME": "FENGYUN 1C DEB", "OBJECT_ID": "1999-025CME", "EPOCH": "2025-11-30T15:06:17.273376", "MEAN_MOTION": 14.34883129, "ECCENTRICITY": 0.0074571, "INCLINATION": 98.7907, "RA_OF_ASC_NODE": 103.7601, "ARG_OF_PERICENTER": 90.6854, "MEAN_ANOMALY": 270.2876, "EPHEMERIS_TYPE": 0, "CLASSIFICATION_TYPE": "U", "NORAD_CAT_ID": 31929, "ELEMENT_SET_NO": 999, "REV_AT_EPOCH": 70472, "BSTAR": 0.00051275, "MEAN_MOTION_DOT": 1.458e-05, "MEAN_MOTION_DDOT": 0}, "tle": {"line1": "1 31929U 99025CME 25334.62936659  .00001458  00000+0  51275-3 0  9992", "line2": "2 31929  98.7907 103.7601 0074571  90.6854 270.2876 14.34883129704725"}}, "geometry": {"type": "Point", "coordinates": [-64.82874030048056, 45.89050164498178]}}, {"type": "Feature", "properties": {"norad_id": 31931, "name": "FENGYUN 1C DEB", "group": "fengyun-1c-debris", "lat": -69.47088027321864, "lon": -49.012720880346464, "alt_km": 791.8413957254479, "timestamp": "2025-12-02T19:35:50.840989+00:00", "meta": {"OBJECT_NAME": "FENGYUN 1C DEB", "OBJECT_ID": "1999-025CMG", "EPOCH": "2025-12-02T03:49:46.282080", "MEAN_MOTION": 13.42581825, "ECCENTRICITY": 0.04237527, "INCLINATION": 97.812, "RA_OF_ASC_NODE": 288.9703, "ARG_OF_PERICENTER": 297.2046, "MEAN_ANOMALY": 58.6502, "EPHEMERIS_TYPE": 0, "CLASSIFICATION_TYPE": "U", "NORAD_CAT_ID": 31931, "ELEMENT_SET_NO": 999, "REV_AT_EPOCH": 65080, "BSTAR": 0.0013732489, "MEAN_MOTION_DOT": 1.293e-05, "MEAN_MOTION_DDOT": 0}, "tle": {"line1": "1 31931U 99025CMG 25336.15956345  .00001293  00000+0  13732-2 0  9991", "line2": "2 31931  97.8120 288.9703 0423752 297.2046  58.6502 13.42581825650800"}}, "geometry": {"type": "Point", "coordinates": [-49.012720880346464, -69.47088027321864]}}]}